NORAD_CAT_ID,OBJECT_NAME,OBJECT_TYPE,EPOCH,MEAN_MOTION,ECCENTRICITY,INCLINATION,RA_OF_ASC_NODE,ARG_OF_PERICENTER,MEAN_ANOMALY,BSTAR,MEAN_MOTION_DOT,MEAN_MOTION_DDOT,TLE_LINE0,TLE_LINE1,TLE_LINE2,SEMIMAJOR_AXIS,PERIOD,APOGEE,PERIGEE,DECAYED
52999.0,STARLINK-4217,PAYLOAD,2023-03-27 17:59:59,15.08887232,9.75e-05,53.2146,253.1797,101.8813,258.2289,0.0017101,0.00027068,0.0,0 STARLINK-4217,1 52999U 22076P   23086.74999048  .00027068  00000-0  17101-2 0  9995,2 52999  53.2146 253.1797 0000975 101.8813 258.2289 15.08887232 40110,6917.736,95.435,540.276,538.927,0.0
52999.0,STARLINK-4217,PAYLOAD,2023-03-28 03:32:17,15.08882561,0.000103,53.2151,251.3972,101.7457,258.3651,0.00069908,0.00010868,0.0,0 STARLINK-4217,1 52999U 22076P   23087.14742315  .00010868  00000-0  69908-3 0  9996,2 52999  53.2151 251.3972 0001030 101.7457 258.3651 15.08882561 40649,6917.75,95.435,540.328,538.903,0.0
52999.0,STARLINK-4217,PAYLOAD,2023-03-28 11:29:12,15.08859692,0.0001148,53.215,249.9085,93.5882,266.5242,4.1747e-05,3.77e-06,0.0,0 STARLINK-4217,1 52999U 22076P   23087.47862259  .00000377  00000-0  41747-4 0  9998,2 52999  53.2150 249.9085 0001148  93.5882 266.5242 15.08859692 40226,6917.82,95.436,540.479,538.891,0.0
52999.0,STARLINK-4217,PAYLOAD,2023-03-28 16:15:22,15.08854087,0.0001003,53.2147,249.0167,81.609,278.5016,0.0014125,0.00022272,0.0,0 STARLINK-4217,1 52999U 22076P   23087.67734312  .00022272  00000-0  14125-2 0  9994,2 52999  53.2147 249.0167 0001003  81.6090 278.5016 15.08854087 40723,6917.837,95.437,540.396,539.008,0.0
52999.0,STARLINK-4217,PAYLOAD,2023-03-28 17:50:45,15.08856203,9.99e-05,53.2149,248.7196,82.4652,277.6453,0.0016758,0.00026495,0.0,0 STARLINK-4217,1 52999U 22076P   23087.74358251  .00026495  00000-0  16758-2 0  9991,2 52999  53.2149 248.7196 0000999  82.4652 277.6453 15.08856203 40265,6917.831,95.437,540.387,539.005,0.0
52999.0,STARLINK-4217,PAYLOAD,2023-03-29 03:23:04,15.0885201,9.28e-05,53.2148,246.9362,88.7291,271.3807,0.0012214,0.0001921,0.0,0 STARLINK-4217,1 52999U 22076P   23088.14102305  .00019210  00000-0  12214-2 0  9993,2 52999  53.2148 246.9362 0000928  88.7291 271.3807 15.08852010 40793,6917.844,95.437,540.351,539.067,0.0
52999.0,STARLINK-4217,PAYLOAD,2023-03-29 11:20:00,15.08838378,0.0001067,53.2162,245.45,96.1829,263.9285,0.00014226,1.977e-05,0.0,0 STARLINK-4217,1 52999U 22076P   23088.47222463  .00001977  00000-0  14226-3 0  9994,2 52999  53.2162 245.4500 0001067  96.1829 263.9285 15.08838378 40846,6917.885,95.438,540.488,539.012,0.0
52999.0,STARLINK-4217,PAYLOAD,2023-03-29 17:41:32,15.08848719,0.0001107,53.2162,244.2601,96.4406,263.6712,0.00012256,1.664e-05,0.0,0 STARLINK-4217,1 52999U 22076P   23088.73718180  .00001664  00000-0  12256-3 0  9993,2 52999  53.2162 244.2601 0001107  96.4406 263.6712 15.08848719 40419,6917.854,95.437,540.485,538.953,0.0
52999.0,STARLINK-4217,PAYLOAD,2023-03-30 09:35:24,15.08843176,0.0001337,53.2156,241.2852,105.7418,254.3721,0.00018828,2.71e-05,0.0,0 STARLINK-4217,1 52999U 22076P   23089.39958401  .00002710  00000-0  18828-3 0  9992,2 52999  53.2156 241.2852 0001337 105.7418 254.3721 15.08843176 40980,6917.871,95.437,540.661,538.811,0.0
52999.0,STARLINK-4217,PAYLOAD,2023-03-30 17:32:19,15.08853031,0.0001369,53.2156,239.7988,72.1038,288.0103,0.00035375,5.348e-05,0.0,0 STARLINK-4217,1 52999U 22076P   23089.73078233  .00005348  00000-0  35375-3 0  9992,2 52999  53.2156 239.7988 0001369  72.1038 288.0103 15.08853031 40565,6917.841,95.437,540.653,538.759,0.0
52999.0,STARLINK-4217,PAYLOAD,2023-03-31 11:01:34,15.08844415,0.0001613,53.2156,236.5297,67.1464,292.9699,0.00020495,2.976e-05,0.0,0 STARLINK-4217,1 52999U 22076P   23090.45942474  .00002976  00000-0  20495-3 0  9991,2 52999  53.2156 236.5297 0001613  67.1464 292.9699 15.08844415 41147,6917.867,95.437,540.848,538.616,0.0
52999.0,STARLINK-4217,PAYLOAD,2023-04-01 09:16:58,15.08836994,0.0002071,53.2159,232.368,75.1736,284.9486,3.1783e-05,2.18e-06,0.0,0 STARLINK-4217,1 52999U 22076P   23091.38678941  .00000218  00000-0  31783-4 0  9999,2 52999  53.2159 232.3680 0002071  75.1736 284.9486 15.08836994 40811,6917.89,95.438,541.187,538.322,0.0
52999.0,STARLINK-4217,PAYLOAD,2023-04-01 15:38:31,15.08835862,0.0001393,53.2167,231.1739,88.7919,271.3233,-6.0445e-05,-1.25e-05,0.0,0 STARLINK-4217,1 52999U 22076P   23091.65175129 -.00001250  00000-0 -60445-4 0  9995,2 52999  53.2167 231.1739 0001393  88.7919 271.3233 15.08835862 41321,6917.893,95.438,540.722,538.794,0.0
52999.0,STARLINK-4217,PAYLOAD,2023-04-02 13:53:55,15.08843613,0.0001383,53.2144,227.0119,79.2557,280.8591,0.00020587,2.99e-05,0.0,0 STARLINK-4217,1 52999U 22076P   23092.57911181  .00002990  00000-0  20587-3 0  9995,2 52999  53.2144 227.0119 0001383  79.2557 280.8591 15.08843613 40991,6917.869,95.437,540.691,538.778,0.0
52999.0,STARLINK-4217,PAYLOAD,2023-04-02 18:40:04,15.0885223,0.000129,53.2141,226.1179,91.7816,268.3324,0.00045503,6.964e-05,0.0,0 STARLINK-4217,1 52999U 22076P   23092.77782869  .00006964  00000-0  45503-3 0  9996,2 52999  53.2141 226.1179 0001290  91.7816 268.3324 15.08852230 41494,6917.843,95.437,540.6,538.816,0.0
52999.0,STARLINK-4217,PAYLOAD,2023-04-03 12:09:19,15.08843223,0.0001173,53.2143,222.848,95.8351,264.2775,0.0002487,3.673e-05,0.0,0 STARLINK-4217,1 52999U 22076P   23093.50647381  .00003673  00000-0  24870-3 0  9995,2 52999  53.2143 222.8480 0001173  95.8351 264.2775 15.08843223 41603,6917.871,95.437,540.547,538.924,0.0
52999.0,STARLINK-4217,PAYLOAD,2023-04-03 18:30:51,15.08851795,0.000142,53.2143,221.6575,104.463,255.652,0.00036804,5.576e-05,0.0,0 STARLINK-4217,1 52999U 22076P   23093.77142997  .00005576  00000-0  36804-3 0  9991,2 52999  53.2143 221.6575 0001420 104.4630 255.6520 15.08851795 41174,6917.844,95.437,540.692,538.727,0.0
52999.0,STARLINK-4217,PAYLOAD,2023-04-04 12:00:06,15.08846685,0.0001301,53.2146,218.388,90.4008,269.7133,0.00038101,5.782e-05,0.0,0 STARLINK-4217,1 52999U 22076P   23094.50007025  .00005782  00000-0  38101-3 0  9996,2 52999  53.2146 218.3880 0001301  90.4008 269.7133 15.08846685 41280,6917.86,95.437,540.625,538.825,0.0
52999.0,STARLINK-4217,PAYLOAD,2023-04-05 13:26:16,15.0884104,0.0001279,53.2164,213.6299,96.4138,263.6999,0.00015168,2.127e-05,0.0,0 STARLINK-4217,1 52999U 22076P   23095.55991138  .00002127  00000-0  15168-3 0  9997,2 52999  53.2164 213.6299 0001279  96.4138 263.6999 15.08841040 41447,6917.877,95.437,540.627,538.857,0.0
52999.0,STARLINK-4217,PAYLOAD,2023-04-05 15:01:39,15.08841616,0.0001487,53.216,213.3322,103.3437,256.7721,0.00015093,2.115e-05,0.0,0 STARLINK-4217,1 52999U 22076P   23095.62615135  .00002115  00000-0  15093-3 0  9999,2 52999  53.2160 213.3322 0001487 103.3437 256.7721 15.08841616 41926,6917.875,95.437,540.769,538.712,0.0
52999.0,STARLINK-4217,PAYLOAD,2023-04-06 08:30:54,15.0883716,0.0001347,53.2167,210.0619,101.2947,258.8196,5.9781e-05,6.64e-06,0.0,0 STARLINK-4217,1 52999U 22076P   23096.35479420  .00000664  00000-0  59781-4 0  9995,2 52999  53.2167 210.0619 0001347 101.2947 258.8196 15.08837160 42035,6917.889,95.438,540.686,538.822,0.0
52999.0,STARLINK-4217,PAYLOAD,2023-04-06 11:41:40,15.08839594,0.0001392,53.2171,209.4675,104.9445,255.1702,7.4226e-05,8.94e-06,0.0,0 STARLINK-4217,1 52999U 22076P   23096.48727292  .00000894  00000-0  74226-4 0  9998,2 52999  53.2171 209.4675 0001392 104.9445 255.1702 15.08839594 41582,6917.882,95.438,540.71,538.784,0.0
52999.0,STARLINK-4217,PAYLOAD,2023-04-06 18:03:12,15.08846851,0.0001609,53.2165,208.277,106.4715,253.6454,0.00017352,2.475e-05,0.0,0 STARLINK-4217,1 52999U 22076P   23096.75222909  .00002475  00000-0  17352-3 0  9996,2 52999  53.2165 208.2770 0001609 106.4715 253.6454 15.08846851 42094,6917.859,95.437,540.838,538.611,0.0
52999.0,STARLINK-4217,PAYLOAD,2023-04-07 06:46:18,15.08841427,0.0001727,53.2151,205.8972,84.0818,276.0371,0.00010061,1.314e-05,0.0,0 STARLINK-4217,1 52999U 22076P   23097.28215393  .00001314  00000-0  10061-3 0  9995,2 52999  53.2151 205.8972 0001727  84.0818 276.0371 15.08841427 42172,6917.876,95.437,540.936,538.546,0.0
52999.0,STARLINK-4217,PAYLOAD,2023-04-07 11:32:27,15.08839136,0.0001483,53.2178,205.0075,89.5446,270.5716,7.7779e-05,9.5e-06,0.0,0 STARLINK-4217,1 52999U 22076P   23097.48087456  .00000950  00000-0  77779-4 0  9999,2 52999  53.2178 205.0075 0001483  89.5446 270.5716 15.08839136 41730,6917.883,95.438,540.774,538.722,0.0
52999.0,STARLINK-4217,PAYLOAD,2023-04-08 00:15:32,15.08834924,0.000167,53.2163,202.6268,90.3482,269.7702,1.0608e-05,-1.19e-06,0.0,0 STARLINK-4217,1 52999U 22076P   23098.01079728 -.00000119  00000-0  10608-4 0  9998,2 52999  53.2163 202.6268 0001670  90.3482 269.7702 15.08834924 42285,6917.896,95.438,540.916,538.606,0.0
52999.0,STARLINK-4217,PAYLOAD,2023-04-08 12:58:37,15.08838185,0.0001633,53.2161,200.2486,98.9605,261.1572,5.824e-05,6.39e-06,0.0,0 STARLINK-4217,1 52999U 22076P   23098.54071704  .00000639  00000-0  58240-4 0  9992,2 52999  53.2161 200.2486 0001633  98.9605 261.1572 15.08838185 41899,6917.886,95.438,540.881,538.621,0.0
52999.0,STARLINK-4217,PAYLOAD,2023-04-09 06:27:52,15.08842134,0.0001471,53.2156,196.9793,82.0802,278.0357,0.00015726,2.216e-05,0.0,0 STARLINK-4217,1 52999U 22076P   23099.26935600  .00002216  00000-0  15726-3 0  9990,2 52999  53.2156 196.9793 0001471  82.0802 278.0357 15.08842134 42470,6917.874,95.437,540.756,538.721,0.0
52999.0,STARLINK-4217,PAYLOAD,2023-04-09 11:14:01,15.0884336,0.0001461,53.2166,196.0872,81.2074,278.9084,0.00018754,2.698e-05,0.0,0 STARLINK-4217,1 52999U 22076P   23099.46807564  .00002698  00000-0  18754-3 0  9997,2 52999  53.2166 196.0872 0001461  81.2074 278.9084 15.08843360 42031,6917.87,95.437,540.746,538.724,0.0
52999.0,STARLINK-4217,PAYLOAD,2023-04-09 12:49:24,15.08845924,0.0001139,53.2159,195.7899,62.8706,297.2402,0.00016278,2.304e-05,0.0,0 STARLINK-4217,1 52999U 22076P   23099.53431376  .00002304  00000-0  16278-3 0  9992,2 52999  53.2159 195.7899 0001139  62.8706 297.2402 15.08845924 42044,6917.862,95.437,540.515,538.939,0.0
